start=new Date('2023-03-19T00:00:00.000Z').valueOf();
sats=[{"OBJECT_NAME":"STARLINK-1420","APOAPSIS":"548.215","MEAN_MOTION_DOT":"0.00021643","PERIAPSIS":"546.194","TIME_SYSTEM":"UTC","REV_AT_EPOCH":"15532","NORAD_CAT_ID":"45695","TLE_LINE2":"2 45695  53.0516 236.1920 0001459  83.3670 276.7485 15.06402955155322","RCS_SIZE":"LARGE","LAUNCH_DATE":"2020-06-04","BSTAR":"0.00146730000000","EPHEMERIS_TYPE":"0","ELEMENT_SET_NO":"999","REF_FRAME":"TEME","PERIOD":"95.592","ECCENTRICITY":"0.00014590","OBJECT_TYPE":"PAYLOAD","SITE":"AFETR","OBJECT_ID":"2020-035AQ","MEAN_ELEMENT_THEORY":"SGP4","SEMIMAJOR_AXIS":"6925.340","GP_ID":"228399811","COUNTRY_CODE":"US","CENTER_NAME":"EARTH","MEAN_ANOMALY":"276.7485","TLE_LINE1":"1 45695U 20035AQ  23077.72327881  .00021643  00000-0  14673-2 0  9995","ARG_OF_PERICENTER":"83.3670","RA_OF_ASC_NODE":"236.1920","FILE":"3864479","EPOCH":"2023-03-18T17:21:31.289184","CLASSIFICATION_TYPE":"U","INCLINATION":"53.0516","MEAN_MOTION_DDOT":"0.0000000000000","DECAY_DATE":null,"MEAN_MOTION":"15.06402955"},{"FILE":"3864479","EPOCH":"2023-03-18T20:47:14.572896","CLASSIFICATION_TYPE":"U","ARG_OF_PERICENTER":"109.3747","RA_OF_ASC_NODE":"255.5590","MEAN_MOTION":"15.06404720","INCLINATION":"53.0521","DECAY_DATE":null,"MEAN_MOTION_DDOT":"0.0000000000000","OBJECT_TYPE":"PAYLOAD","SITE":"AFETR","OBJECT_ID":"2020-035AR","ECCENTRICITY":"0.00009570","SEMIMAJOR_AXIS":"6925.334","COUNTRY_CODE":"US","GP_ID":"228400555","CENTER_NAME":"EARTH","MEAN_ANOMALY":"250.7345","TLE_LINE1":"1 45696U 20035AR  23077.86614089  .00017149  00000-0  11672-2 0  9992","MEAN_ELEMENT_THEORY":"SGP4","LAUNCH_DATE":"2020-06-04","RCS_SIZE":"LARGE","EPHEMERIS_TYPE":"0","BSTAR":"0.00116720000000","ELEMENT_SET_NO":"999","REF_FRAME":"TEME","PERIOD":"95.592","PERIAPSIS":"546.536","TIME_SYSTEM":"UTC","APOAPSIS":"547.862","OBJECT_NAME":"STARLINK-1422","MEAN_MOTION_DOT":"0.00017149","NORAD_CAT_ID":"45696","REV_AT_EPOCH":"15505","TLE_LINE2":"2 45696  53.0521 255.5590 0000957 109.3747 250.7345 15.06404720155052"},{"ARG_OF_PERICENTER":"92.4315","RA_OF_ASC_NODE":"235.6680","FILE":"3864479","EPOCH":"2023-03-18T20:12:43.932960","CLASSIFICATION_TYPE":"U","INCLINATION":"53.0515","MEAN_MOTION_DDOT":"0.0000000000000","DECAY_DATE":null,"MEAN_MOTION":"15.06433504","ECCENTRICITY":"0.00008620","SITE":"AFETR","OBJECT_TYPE":"PAYLOAD","OBJECT_ID":"2020-035AS","MEAN_ELEMENT_THEORY":"SGP4","COUNTRY_CODE":"US","GP_ID":"228400809","CENTER_NAME":"EARTH","SEMIMAJOR_AXIS":"6925.246","TLE_LINE1":"1 45697U 20035AS  23077.84217515  .00022194  00000-0  15028-2 0  9999","MEAN_ANOMALY":"267.6773","RCS_SIZE":"LARGE","LAUNCH_DATE":"2020-06-04","ELEMENT_SET_NO":"999","BSTAR":"0.00150280000000","EPHEMERIS_TYPE":"0","PERIOD":"95.590","REF_FRAME":"TEME","MEAN_MOTION_DOT":"0.00022194","OBJECT_NAME":"STARLINK-1351","APOAPSIS":"547.708","PERIAPSIS":"546.514","TIME_SYSTEM":"UTC","NORAD_CAT_ID":"45697","REV_AT_EPOCH":"15534","TLE_LINE2":"2 45697  53.0515 235.6680 0000862  92.4315 267.6773 15.06433504155349"},{"PERIOD":"95.591","REF_FRAME":"TEME","ELEMENT_SET_NO":"999","EPHEMERIS_TYPE":"0","BSTAR":"0.00145440000000","LAUNCH_DATE":"2020-06-04","RCS_SIZE":"LARGE","TLE_LINE2":"2 45698  53.0511 235.7118 0000847  98.5627 261.5458 15.06420353155340","NORAD_CAT_ID":"45698","REV_AT_EPOCH":"15534","TIME_SYSTEM":"UTC","PERIAPSIS":"546.565","MEAN_MOTION_DOT":"0.00021460","APOAPSIS":"547.738","OBJECT_NAME":"STARLINK-1370","MEAN_MOTION":"15.06420353","MEAN_MOTION_DDOT":"0.0000000000000","DECAY_DATE":null,"INCLINATION":"53.0511","CLASSIFICATION_TYPE":"U","EPOCH":"2023-03-18T19:55:26.974848","FILE":"3864479","RA_OF_ASC_NODE":"235.7118","ARG_OF_PERICENTER":"98.5627","TLE_LINE1":"1 45698U 20035AT  23077.83017332  .00021460  00000-0  14544-2 0  9991","MEAN_ANOMALY":"261.5458","GP_ID":"228399564","COUNTRY_CODE":"US","CENTER_NAME":"EARTH","SEMIMAJOR_AXIS":"6925.286","MEAN_ELEMENT_THEORY":"SGP4","OBJECT_ID":"2020-035AT","SITE":"AFETR","OBJECT_TYPE":"PAYLOAD","ECCENTRICITY":"0.00008470"},{"BSTAR":"0.00145790000000","EPHEMERIS_TYPE":"0","ELEMENT_SET_NO":"999","REF_FRAME":"TEME","PERIOD":"95.592","LAUNCH_DATE":"2020-06-04","RCS_SIZE":"LARGE","NORAD_CAT_ID":"45699","REV_AT_EPOCH":"15532","TLE_LINE2":"2 45699  53.0510 236.0651 0001397  71.1867 288.9273 15.06406266155323","PERIAPSIS":"546.227","TIME_SYSTEM":"UTC","OBJECT_NAME":"STARLINK-1398","APOAPSIS":"548.162","MEAN_MOTION_DOT":"0.00021504","MEAN_MOTION":"15.06406266","INCLINATION":"53.0510","DECAY_DATE":null,"MEAN_MOTION_DDOT":"0.0000000000000","EPOCH":"2023-03-18T18:05:21.509952","FILE":"3864479","CLASSIFICATION_TYPE":"U","ARG_OF_PERICENTER":"71.1867","RA_OF_ASC_NODE":"236.0651","SEMIMAJOR_AXIS":"6925.329","COUNTRY_CODE":"US","GP_ID":"228400312","CENTER_NAME":"EARTH","MEAN_ANOMALY":"288.9273","TLE_LINE1":"1 45699U 20035AU  23077.75372118  .00021504  00000-0  14579-2 0  9996","MEAN_ELEMENT_THEORY":"SGP4","OBJECT_TYPE":"PAYLOAD","SITE":"AFETR","OBJECT_ID":"2020-035AU","ECCENTRICITY":"0.00013970"},{"ECCENTRICITY":"0.00011980","OBJECT_ID":"2020-035AV","SITE":"AFETR","OBJECT_TYPE":"PAYLOAD","MEAN_ELEMENT_THEORY":"SGP4","MEAN_ANOMALY":"279.3012","TLE_LINE1":"1 45700U 20035AV  23077.81638648  .00026726  00000-0  18051-2 0  9999","COUNTRY_CODE":"US","GP_ID":"228401055","CENTER_NAME":"EARTH","SEMIMAJOR_AXIS":"6925.271","RA_OF_ASC_NODE":"235.7841","ARG_OF_PERICENTER":"80.8113","CLASSIFICATION_TYPE":"U","FILE":"3864479","EPOCH":"2023-03-18T19:35:35.791872","MEAN_MOTION_DDOT":"0.0000000000000","DECAY_DATE":null,"INCLINATION":"53.0517","MEAN_MOTION":"15.06425253","MEAN_MOTION_DOT":"0.00026726","APOAPSIS":"547.966","OBJECT_NAME":"STARLINK-1400","TIME_SYSTEM":"UTC","PERIAPSIS":"546.307","TLE_LINE2":"2 45700  53.0517 235.7841 0001198  80.8113 279.3012 15.06425253155333","NORAD_CAT_ID":"45700","REV_AT_EPOCH":"15533","RCS_SIZE":"LARGE","LAUNCH_DATE":"2020-06-04","PERIOD":"95.591","REF_FRAME":"TEME","ELEMENT_SET_NO":"999","EPHEMERIS_TYPE":"0","BSTAR":"0.00180510000000"},{"LAUNCH_DATE":"2020-06-04","RCS_SIZE":"LARGE","EPHEMERIS_TYPE":"0","BSTAR":"0.00135730000000","ELEMENT_SET_NO":"999","REF_FRAME":"TEME","PERIOD":"95.591","PERIAPSIS":"546.070","TIME_SYSTEM":"UTC","APOAPSIS":"548.250","OBJECT_NAME":"STARLINK-1403","MEAN_MOTION_DOT":"0.00020003","NORAD_CAT_ID":"45701","REV_AT_EPOCH":"15531","TLE_LINE2":"2 45701  53.0531 236.2391 0001574  92.1094 268.0075 15.06417557155318","EPOCH":"2023-03-18T17:06:58.277664","FILE":"3864479","CLASSIFICATION_TYPE":"U","ARG_OF_PERICENTER":"92.1094","RA_OF_ASC_NODE":"236.2391","MEAN_MOTION":"15.06417557","INCLINATION":"53.0531","DECAY_DATE":null,"MEAN_MOTION_DDOT":"0.0000000000000","OBJECT_TYPE":"PAYLOAD","SITE":"AFETR","OBJECT_ID":"2020-035AW","ECCENTRICITY":"0.00015740","SEMIMAJOR_AXIS":"6925.295","COUNTRY_CODE":"US","GP_ID":"228401310","CENTER_NAME":"EARTH","MEAN_ANOMALY":"268.0075","TLE_LINE1":"1 45701U 20035AW  23077.71317451  .00020003  00000-0  13573-2 0  9991","MEAN_ELEMENT_THEORY":"SGP4"},{"BSTAR":"0.00151130000000","EPHEMERIS_TYPE":"0","ELEMENT_SET_NO":"999","REF_FRAME":"TEME","PERIOD":"95.591","LAUNCH_DATE":"2020-06-04","RCS_SIZE":"LARGE","NORAD_CAT_ID":"45702","REV_AT_EPOCH":"15531","TLE_LINE2":"2 45702  53.0511 236.3299 0000965  94.1462 265.9637 15.06418304155310","PERIAPSIS":"546.489","TIME_SYSTEM":"UTC","APOAPSIS":"547.826","OBJECT_NAME":"STARLINK-1405","MEAN_MOTION_DOT":"0.00022312","MEAN_MOTION":"15.06418304","INCLINATION":"53.0511","DECAY_DATE":null,"MEAN_MOTION_DDOT":"0.0000000000000","FILE":"3864479","EPOCH":"2023-03-18T16:40:25.728672","CLASSIFICATION_TYPE":"U","ARG_OF_PERICENTER":"94.1462","RA_OF_ASC_NODE":"236.3299","SEMIMAJOR_AXIS":"6925.292","GP_ID":"228400064","COUNTRY_CODE":"US","CENTER_NAME":"EARTH","MEAN_ANOMALY":"265.9637","TLE_LINE1":"1 45702U 20035AX  23077.69474223  .00022312  00000-0  15113-2 0  9997","MEAN_ELEMENT_THEORY":"SGP4","OBJECT_TYPE":"PAYLOAD","SITE":"AFETR","OBJECT_ID":"2020-035AX","ECCENTRICITY":"0.00009650"},{"MEAN_MOTION":"15.06428996","INCLINATION":"53.0524","DECAY_DATE":null,"MEAN_MOTION_DDOT":"0.0000000000000","EPOCH":"2023-03-18T19:46:12.088128","FILE":"3864479","CLASSIFICATION_TYPE":"U","ARG_OF_PERICENTER":"99.1769","RA_OF_ASC_NODE":"235.7494","SEMIMAJOR_AXIS":"6925.260","CENTER_NAME":"EARTH","GP_ID":"228399812","COUNTRY_CODE":"US","TLE_LINE1":"1 45703U 20035AY  23077.82375102  .00021243  00000-0  14396-2 0  9993","MEAN_ANOMALY":"260.9346","MEAN_ELEMENT_THEORY":"SGP4","OBJECT_TYPE":"PAYLOAD","SITE":"AFETR","OBJECT_ID":"2020-035AY","ECCENTRICITY":"0.00011200","BSTAR":"0.00143960000000","EPHEMERIS_TYPE":"0","ELEMENT_SET_NO":"999","REF_FRAME":"TEME","PERIOD":"95.590","LAUNCH_DATE":"2020-06-04","RCS_SIZE":"LARGE","REV_AT_EPOCH":"15533","NORAD_CAT_ID":"45703","TLE_LINE2":"2 45703  53.0524 235.7494 0001120  99.1769 260.9346 15.06428996155336","PERIAPSIS":"546.349","TIME_SYSTEM":"UTC","APOAPSIS":"547.900","OBJECT_NAME":"STARLINK-1407","MEAN_MOTION_DOT":"0.00021243"},{"LAUNCH_DATE":"2020-06-04","RCS_SIZE":"LARGE","REF_FRAME":"TEME","PERIOD":"95.591","BSTAR":"0.00116000000000","EPHEMERIS_TYPE":"0","ELEMENT_SET_NO":"999","TIME_SYSTEM":"UTC","PERIAPSIS":"546.437","APOAPSIS":"547.912","OBJECT_NAME":"STARLINK-1409","MEAN_MOTION_DOT":"0.00017045","TLE_LINE2":"2 45704  53.0514 265.9328 0001065 101.2086 258.9023 15.06412596154913","NORAD_CAT_ID":"45704","REV_AT_EPOCH":"15491","CLASSIFICATION_TYPE":"U","EPOCH":"2023-03-18T18:47:47.095008","FILE":"3864479","RA_OF_ASC_NODE":"265.9328","ARG_OF_PERICENTER":"101.2086","MEAN_MOTION":"15.06412596","DECAY_DATE":null,"MEAN_MOTION_DDOT":"0.0000000000000","INCLINATION":"53.0514","OBJECT_ID":"2020-035AZ","OBJECT_TYPE":"PAYLOAD","SITE":"AFETR","ECCENTRICITY":"0.00010650","TLE_LINE1":"1 45704U 20035AZ  23077.78318397  .00017045  00000-0  11600-2 0  9992","MEAN_ANOMALY":"258.9023","SEMIMAJOR_AXIS":"6925.310","GP_ID":"228400556","CENTER_NAME":"EARTH","COUNTRY_CODE":"US","MEAN_ELEMENT_THEORY":"SGP4"}];
